NORAD_CAT_ID,OBJECT_NAME,OBJECT_TYPE,EPOCH,MEAN_MOTION,ECCENTRICITY,INCLINATION,RA_OF_ASC_NODE,ARG_OF_PERICENTER,MEAN_ANOMALY,BSTAR,MEAN_MOTION_DOT,MEAN_MOTION_DDOT,TLE_LINE0,TLE_LINE1,TLE_LINE2,SEMIMAJOR_AXIS,PERIOD,APOGEE,PERIGEE,DECAYED
53835.0,STARLINK-4783,PAYLOAD,2024-02-02 14:50:23,15.08835296,0.0001621,53.2187,142.9358,63.9916,296.1243,0.00032825,4.939e-05,0.0,0 STARLINK-4783,1 53835U 22114T   24033.61833149  .00004939  00000-0  32825-3 0  9999,2 53835  53.2187 142.9358 0001621  63.9916 296.1243 15.08835296 77185,6917.895,95.438,540.881,538.638,0.0
53835.0,STARLINK-4783,PAYLOAD,2024-02-03 11:30:25,15.08840725,0.0001701,53.2197,139.0689,71.2072,288.9104,3.6931e-05,3e-06,0.0,0 STARLINK-4783,1 53835U 22114T   24034.47945691  .00000300  00000-0  36931-4 0  9991,2 53835  53.2197 139.0689 0001701  71.2072 288.9104 15.08840725 77317,6917.878,95.438,540.92,538.566,0.0
53835.0,STARLINK-4783,PAYLOAD,2024-02-03 16:16:34,15.08842732,0.0001722,53.2204,138.176,72.4786,287.6394,5.6836e-05,6.17e-06,0.0,0 STARLINK-4783,1 53835U 22114T   24034.67817505  .00000617  00000-0  56836-4 0  9992,2 53835  53.2204 138.1760 0001722  72.4786 287.6394 15.08842732 76804,6917.872,95.437,540.928,538.546,0.0
53835.0,STARLINK-4783,PAYLOAD,2024-02-04 12:56:34,15.0885565,0.0002004,53.2206,134.3109,64.1616,295.9583,-1.8941e-05,-5.9e-06,0.0,0 STARLINK-4783,1 53835U 22114T   24035.53928878 -.00000590  00000-0 -18941-4 0  9991,2 53835  53.2206 134.3109 0002004  64.1616 295.9583 15.08855650 77474,6917.833,95.437,541.084,538.311,0.0
53835.0,STARLINK-4783,PAYLOAD,2024-02-05 11:11:58,15.08841089,0.0001635,53.2176,130.1548,86.1736,273.9444,4.7415e-05,4.67e-06,0.0,0 STARLINK-4783,1 53835U 22114T   24036.46665359  .00000467  00000-0  47415-4 0  9995,2 53835  53.2176 130.1548 0001635  86.1736 273.9444 15.08841089 77076,6917.877,95.437,540.873,538.611,0.0
53835.0,STARLINK-4783,PAYLOAD,2024-02-05 12:47:21,15.08841646,0.0001646,53.2175,129.8578,84.5181,275.5999,4.82e-05,4.79e-06,0.0,0 STARLINK-4783,1 53835U 22114T   24036.53289319  .00000479  00000-0  48200-4 0  9997,2 53835  53.2175 129.8578 0001646  84.5181 275.5999 15.08841646 77624,6917.875,95.437,540.879,538.602,0.0
53835.0,STARLINK-4783,PAYLOAD,2024-02-06 12:38:09,15.08842029,0.0001645,53.2178,125.3934,101.0827,259.035,-2.4682e-05,-6.81e-06,0.0,0 STARLINK-4783,1 53835U 22114T   24037.52649449 -.00000681  00000-0 -24682-4 0  9996,2 53835  53.2178 125.3934 0001645 101.0827 259.0350 15.08842029 77775,6917.874,95.437,540.877,538.601,0.0
53835.0,STARLINK-4783,PAYLOAD,2024-02-07 12:28:56,15.08842967,0.000183,53.2183,120.9398,114.9187,245.1995,8.9721e-05,1.14e-05,0.0,0 STARLINK-4783,1 53835U 22114T   24038.52009273  .00001140  00000-0  89721-4 0  9996,2 53835  53.2183 120.9398 0001830 114.9187 245.1995 15.08842967 77923,6917.871,95.437,541.002,538.47,0.0
53835.0,STARLINK-4783,PAYLOAD,2024-02-07 22:01:14,15.08840394,0.0001685,53.2179,119.1533,111.2087,248.9085,0.00010684,1.413e-05,0.0,0 STARLINK-4783,1 53835U 22114T   24038.91753398  .00001413  00000-0  10684-3 0  9997,2 53835  53.2179 119.1533 0001685 111.2087 248.9085 15.08840394 77985,6917.879,95.438,540.91,538.579,0.0
53835.0,STARLINK-4783,PAYLOAD,2024-02-08 10:44:20,15.08837076,0.0001851,53.2197,116.7767,116.2555,243.8628,5.4364e-05,5.77e-06,0.0,0 STARLINK-4783,1 53835U 22114T   24039.44745950  .00000577  00000-0  54364-4 0  9995,2 53835  53.2197 116.7767 0001851 116.2555 243.8628 15.08837076 77527,6917.889,95.438,541.035,538.474,0.0
53835.0,STARLINK-4783,PAYLOAD,2024-02-08 12:19:43,15.08838777,0.000188,53.2191,116.4798,118.1213,241.9969,3.1497e-05,2.13e-06,0.0,0 STARLINK-4783,1 53835U 22114T   24039.51370007  .00000213  00000-0  31497-4 0  9999,2 53835  53.2191 116.4798 0001880 118.1213 241.9969 15.08838777 78073,6917.884,95.438,541.05,538.449,0.0
53835.0,STARLINK-4783,PAYLOAD,2024-02-09 13:45:53,15.08851786,0.0001556,53.2177,111.7165,99.9327,260.1841,0.00010001,1.305e-05,0.0,0 STARLINK-4783,1 53835U 22114T   24040.57353099  .00001305  00000-0  10001-3 0  9999,2 53835  53.2177 111.7165 0001556  99.9327 260.1841 15.08851786 78230,6917.844,95.437,540.786,538.633,0.0
53835.0,STARLINK-4783,PAYLOAD,2024-02-10 04:04:22,15.0883417,0.0001715,53.218,109.0426,90.0663,270.0526,8.298e-05,1.033e-05,0.0,0 STARLINK-4783,1 53835U 22114T   24041.16970398  .00001033  00000-0  82980-4 0  9996,2 53835  53.2180 109.0426 0001715  90.0663 270.0526 15.08834170 77783,6917.898,95.438,540.95,538.577,0.0
53835.0,STARLINK-4783,PAYLOAD,2024-02-10 12:01:18,15.08836848,0.000149,53.2175,107.553,81.6142,278.5019,4.6819e-05,4.57e-06,0.0,0 STARLINK-4783,1 53835U 22114T   24041.50090542  .00000457  00000-0  46819-4 0  9998,2 53835  53.2175 107.5530 0001490  81.6142 278.5019 15.08836848 78374,6917.89,95.438,540.786,538.724,0.0
53835.0,STARLINK-4783,PAYLOAD,2024-02-11 10:16:41,15.08851487,0.0001526,53.217,103.3906,74.8764,285.2397,9.6878e-05,1.255e-05,0.0,0 STARLINK-4783,1 53835U 22114T   24042.42825656  .00001255  00000-0  96878-4 0  9999,2 53835  53.2170 103.3906 0001526  74.8764 285.2397 15.08851487 77979,6917.845,95.437,540.766,538.655,0.0
53835.0,STARLINK-4783,PAYLOAD,2024-02-12 10:07:28,15.08852443,0.0001606,53.2168,98.9297,94.6078,265.5098,0.00024383,3.596e-05,0.0,0 STARLINK-4783,1 53835U 22114T   24043.42185425  .00003596  00000-0  24383-3 0  9994,2 53835  53.2168  98.9297 0001606  94.6078 265.5098 15.08852443 78664,6917.842,95.437,540.818,538.596,0.0
53835.0,STARLINK-4783,PAYLOAD,2024-02-13 09:58:15,15.08839671,0.0001372,53.2158,94.4691,83.9603,276.1545,-2.1939e-05,-6.37e-06,0.0,0 STARLINK-4783,1 53835U 22114T   24044.41546067 -.00000637  00000-0 -21939-4 0  9997,2 53835  53.2158  94.4691 0001372  83.9603 276.1545 15.08839671 78277,6917.881,95.438,540.696,538.797,0.0
53835.0,STARLINK-4783,PAYLOAD,2024-02-13 13:09:01,15.08841587,0.0001379,53.2154,93.8726,86.3628,273.7522,6.0588e-06,-1.92e-06,0.0,0 STARLINK-4783,1 53835U 22114T   24044.54793955 -.00000192  00000-0  60588-5 0  9990,2 53835  53.2154  93.8726 0001379  86.3628 273.7522 15.08841587 78835,6917.876,95.437,540.695,538.787,0.0
53835.0,STARLINK-4783,PAYLOAD,2024-02-14 03:27:30,15.08830097,0.0001439,53.2148,91.1955,87.5413,272.5744,0.00019585,2.83e-05,0.0,0 STARLINK-4783,1 53835U 22114T   24045.14410574  .00002830  00000-0  19585-3 0  9999,2 53835  53.2148  91.1955 0001439  87.5413 272.5744 15.08830097 78382,6917.911,95.438,540.771,538.78,0.0
53835.0,STARLINK-4783,PAYLOAD,2024-02-14 09:49:02,15.08846025,0.0001392,53.2151,90.0062,84.7634,275.3517,0.00010943,1.454e-05,0.0,0 STARLINK-4783,1 53835U 22114T   24045.40905825  .00001454  00000-0  10943-3 0  9996,2 53835  53.2151  90.0062 0001392  84.7634 275.3517 15.08846025 78427,6917.862,95.437,540.69,538.764,0.0
53835.0,STARLINK-4783,PAYLOAD,2024-02-14 19:21:21,15.08838658,0.0002088,53.2164,88.223,57.0006,303.1187,-7.7293e-06,-4.11e-06,0.0,0 STARLINK-4783,1 53835U 22114T   24045.80650360 -.00000411  00000-0 -77293-5 0  9998,2 53835  53.2164  88.2230 0002088  57.0006 303.1187 15.08838658 78488,6917.884,95.438,541.194,538.305,0.0
53835.0,STARLINK-4783,PAYLOAD,2024-02-15 09:39:50,15.08831544,0.0001548,53.2176,85.5481,88.9763,271.1406,3.5123e-05,2.71e-06,0.0,0 STARLINK-4783,1 53835U 22114T   24046.40267224  .00000271  00000-0  35123-4 0  9995,2 53835  53.2176  85.5481 0001548  88.9763 271.1406 15.08831544 78577,6917.906,95.438,540.842,538.7,0.0
53835.0,STARLINK-4783,PAYLOAD,2024-02-15 19:12:09,15.08837989,0.0001585,53.2186,83.765,84.3239,275.7934,2.9666e-05,1.84e-06,0.0,0 STARLINK-4783,1 53835U 22114T   24046.80011007  .00000184  00000-0  29666-4 0  9993,2 53835  53.2186  83.7650 0001585  84.3239 275.7934 15.08837989 79177,6917.887,95.438,540.848,538.655,0.0
53835.0,STARLINK-4783,PAYLOAD,2024-02-16 09:30:37,15.08841707,0.0001584,53.2186,81.09,90.119,269.9983,9.9579e-05,1.297e-05,0.0,0 STARLINK-4783,1 53835U 22114T   24047.39626937  .00001297  00000-0  99579-4 0  9998,2 53835  53.2186  81.0900 0001584  90.1190 269.9983 15.08841707 78728,6917.875,95.437,540.836,538.644,0.0
53835.0,STARLINK-4783,PAYLOAD,2024-02-17 09:21:25,15.08836037,0.0001443,53.217,76.6269,88.8574,271.2584,0.00010215,1.338e-05,0.0,0 STARLINK-4783,1 53835U 22114T   24048.38987618  .00001338  00000-0  10215-3 0  9999,2 53835  53.2170  76.6269 0001443  88.8574 271.2584 15.08836037 78872,6917.893,95.438,540.756,538.759,0.0
53835.0,STARLINK-4783,PAYLOAD,2024-02-17 18:53:43,15.08839857,0.0001403,53.2167,74.8427,89.2131,270.9022,0.00010108,1.321e-05,0.0,0 STARLINK-4783,1 53835U 22114T   24048.78731406  .00001321  00000-0  10108-3 0  9998,2 53835  53.2167  74.8427 0001403  89.2131 270.9022 15.08839857 79477,6917.881,95.438,540.716,538.775,0.0
53835.0,STARLINK-4783,PAYLOAD,2024-02-18 10:47:34,15.08853249,0.0001499,53.2165,71.8666,88.3957,271.7206,0.00015907,2.245e-05,0.0,0 STARLINK-4783,1 53835U 22114T   24049.44970445  .00002245  00000-0  15907-3 0  9998,2 53835  53.2165  71.8666 0001499  88.3957 271.7206 15.08853249 79034,6917.84,95.437,540.742,538.668,0.0
53835.0,STARLINK-4783,PAYLOAD,2024-02-18 18:44:30,15.08843061,0.0001512,53.2166,70.3809,83.806,276.3105,0.00011093,1.478e-05,0.0,0 STARLINK-4783,1 53835U 22114T   24049.78091127  .00001478  00000-0  11093-3 0  9995,2 53835  53.2166  70.3809 0001512  83.8060 276.3105 15.08843061 79084,6917.871,95.437,540.782,538.69,0.0
53835.0,STARLINK-4783,PAYLOAD,2024-02-19 07:27:35,15.08840957,0.0001456,53.2156,68.0009,88.7831,271.3328,9.8276e-05,1.276e-05,0.0,0 STARLINK-4783,1 53835U 22114T   24050.31083209  .00001276  00000-0  98276-4 0  9993,2 53835  53.2156  68.0009 0001456  88.7831 271.3328 15.08840957 79708,6917.877,95.437,540.75,538.735,0.0
53835.0,STARLINK-4783,PAYLOAD,2024-02-19 18:35:17,15.08842569,0.0001355,53.2161,65.9209,86.5636,273.5511,5.8754e-05,6.47e-06,0.0,0 STARLINK-4783,1 53835U 22114T   24050.77451175  .00000647  00000-0  58754-4 0  9992,2 53835  53.2161  65.9209 0001355  86.5636 273.5511 15.08842569 79775,6917.873,95.437,540.675,538.8,0.0
